STARLINK-1365           
1 45590U 20025BM  25292.45237364  .00006980  00000+0  48682-3 0  9999
2 45590  53.0520  20.6540 0001589  98.3128 261.8041 15.06416784303810
STARLINK-1443           
1 45660U 20035D   25293.30014986 -.00000006  00000+0  18476-4 0  9999
2 45660  53.0545 336.8547 0001163  42.1962 317.9116 15.06381802297578
STARLINK-1446           
1 45663U 20035G   25293.30630107  .00078949  00000+0  24804-2 0  9991
2 45663  53.0274 301.8568 0001036 265.5963  94.4918 15.32319282298060
STARLINK-1448           
1 45665U 20035J   25293.30383251 -.00003849  00000+0 -23963-3 0  9993
2 45665  53.0550 336.8325 0002797 122.4773 237.6487 15.06388666297562
STARLINK-1451           
1 45668U 20035M   25293.30755425 -.00009967  00000+0 -65149-3 0  9991
2 45668  53.0552 337.1369 0001843  99.1395 260.9802 15.06380868297577
STARLINK-1452           
1 45669U 20035N   25293.29342144  .00080424  00000+0  31263-2 0  9994
2 45669  53.0390 319.7021 0009510 335.1985  24.8553 15.25321536297811
STARLINK-1453           
1 45670U 20035P   25293.31765415 -.00003480  00000+0 -21495-3 0  9995
2 45670  53.0536 306.7764 0001379 100.4515 259.6629 15.06386375297882
STARLINK-1454           
1 45671U 20035Q   25293.26328373 -.00007885  00000+0 -51135-3 0  9995
2 45671  53.0550 337.0200 0001547  85.0761 275.0404 15.06376179297557
STARLINK-1456           
1 45673U 20035S   25293.27802751 -.00010541  00000+0 -69031-3 0  9992
2 45673  53.0551 336.9544 0001432  81.4129 278.7022 15.06374767297579
STARLINK-1457           
1 45674U 20035T   25293.28540205 -.00008963  00000+0 -58390-3 0  9998
2 45674  53.0552 336.9192 0001373  99.3697 260.7447 15.06378579297546
STARLINK-1458           
1 45675U 20035U   25293.27433565 -.00013210  00000+0 -87017-3 0  9997
2 45675  53.0553 336.9675 0001325  97.6976 262.4163 15.06375865297530
STARLINK-1460           
1 45676U 20035V   25293.31120250 -.00005690  00000+0 -36364-3 0  9999
2 45676  53.0546 336.8022 0001751  89.4558 270.6632 15.06373617297531
STARLINK-1392           
1 45677U 20035W   25293.12322604 -.00003613  00000+0 -22389-3 0  9991
2 45677  53.0570 337.6490 0001772  87.6279 272.4913 15.06379050297540
STARLINK-1394           
1 45679U 20035Y   25293.31949643 -.00005995  00000+0 -38410-3 0  9999
2 45679  53.0549 326.7660 0001333  96.9445 263.1696 15.06382393297715
STARLINK-1402           
1 45685U 20035AE  25293.33336806  .00961885  00000+0  43497-1 0  9995
2 45685  53.0532 320.7830 0001399  65.2948  21.2009 15.17647150  5801
STARLINK-1404           
1 45686U 20035AF  25293.07991195  .00004611  00000+0  32821-3 0  9991
2 45686  53.0541 327.8442 0002956  81.9369 278.1955 15.06403700297682
