[{"OBJECT_NAME":"STARLINK-1365","OBJECT_ID":"2020-025BM","EPOCH":"2025-10-19T10:51:25.082496","MEAN_MOTION":15.06416784,"ECCENTRICITY":0.00015896,"INCLINATION":53.052,"RA_OF_ASC_NODE":20.654,"ARG_OF_PERICENTER":98.3128,"MEAN_ANOMALY":261.8041,"EPHEMERIS_TYPE":0,"CLASSIFICATION_TYPE":"U","NORAD_CAT_ID":45590,"ELEMENT_SET_NO":999,"REV_AT_EPOCH":30381,"BSTAR":0.00048681862,"MEAN_MOTION_DOT":6.98e-5,"MEAN_MOTION_DDOT":0},{"OBJECT_NAME":"STARLINK-1443","OBJECT_ID":"2020-035D","EPOCH":"2025-10-20T07:12:12.947904","MEAN_MOTION":15.06381802,"ECCENTRICITY":0.00011633,"INCLINATION":53.0545,"RA_OF_ASC_NODE":336.8547,"ARG_OF_PERICENTER":42.1962,"MEAN_ANOMALY":317.9116,"EPHEMERIS_TYPE":0,"CLASSIFICATION_TYPE":"U","NORAD_CAT_ID":45660,"ELEMENT_SET_NO":999,"REV_AT_EPOCH":29757,"BSTAR":1.8475714e-5,"MEAN_MOTION_DOT":-6.0e-8,"MEAN_MOTION_DDOT":0},{"OBJECT_NAME":"STARLINK-1446","OBJECT_ID":"2020-035G","EPOCH":"2025-10-20T07:21:04.412448","MEAN_MOTION":15.32319282,"ECCENTRICITY":0.00010368,"INCLINATION":53.0274,"RA_OF_ASC_NODE":301.8568,"ARG_OF_PERICENTER":265.5963,"MEAN_ANOMALY":94.4918,"EPHEMERIS_TYPE":0,"CLASSIFICATION_TYPE":"U","NORAD_CAT_ID":45663,"ELEMENT_SET_NO":999,"REV_AT_EPOCH":29806,"BSTAR":0.0024803959,"MEAN_MOTION_DOT":0.00078949,"MEAN_MOTION_DDOT":0},{"OBJECT_NAME":"STARLINK-1448","OBJECT_ID":"2020-035J","EPOCH":"2025-10-20T07:17:31.128864","MEAN_MOTION":15.06388666,"ECCENTRICITY":0.00027971,"INCLINATION":53.055,"RA_OF_ASC_NODE":336.8325,"ARG_OF_PERICENTER":122.4773,"MEAN_ANOMALY":237.6487,"EPHEMERIS_TYPE":0,"CLASSIFICATION_TYPE":"U","NORAD_CAT_ID":45665,"ELEMENT_SET_NO":999,"REV_AT_EPOCH":29756,"BSTAR":-0.00023963475,"MEAN_MOTION_DOT":-3.849e-5,"MEAN_MOTION_DDOT":0},{"OBJECT_NAME":"STARLINK-1451","OBJECT_ID":"2020-035M","EPOCH":"2025-10-20T07:22:52.687200","MEAN_MOTION":15.06380868,"ECCENTRICITY":0.00018437,"INCLINATION":53.0552,"RA_OF_ASC_NODE":337.1369,"ARG_OF_PERICENTER":99.1395,"MEAN_ANOMALY":260.9802,"EPHEMERIS_TYPE":0,"CLASSIFICATION_TYPE":"U","NORAD_CAT_ID":45668,"ELEMENT_SET_NO":999,"REV_AT_EPOCH":29757,"BSTAR":-0.00065148966,"MEAN_MOTION_DOT":-9.967e-5,"MEAN_MOTION_DDOT":0},{"OBJECT_NAME":"STARLINK-1452","OBJECT_ID":"2020-035N","EPOCH":"2025-10-20T07:02:31.612416","MEAN_MOTION":15.25321536,"ECCENTRICITY":0.000951,"INCLINATION":53.039,"RA_OF_ASC_NODE":319.7021,"ARG_OF_PERICENTER":335.1985,"MEAN_ANOMALY":24.8553,"EPHEMERIS_TYPE":0,"CLASSIFICATION_TYPE":"U","NORAD_CAT_ID":45669,"ELEMENT_SET_NO":999,"REV_AT_EPOCH":29781,"BSTAR":0.0031262808,"MEAN_MOTION_DOT":0.00080424,"MEAN_MOTION_DDOT":0},{"OBJECT_NAME":"STARLINK-1453","OBJECT_ID":"2020-035P","EPOCH":"2025-10-20T07:37:25.318560","MEAN_MOTION":15.06386375,"ECCENTRICITY":0.0001379,"INCLINATION":53.0536,"RA_OF_ASC_NODE":306.7764,"ARG_OF_PERICENTER":100.4515,"MEAN_ANOMALY":259.6629,"EPHEMERIS_TYPE":0,"CLASSIFICATION_TYPE":"U","NORAD_CAT_ID":45670,"ELEMENT_SET_NO":999,"REV_AT_EPOCH":29788,"BSTAR":-0.00021494704,"MEAN_MOTION_DOT":-3.48e-5,"MEAN_MOTION_DDOT":0},{"OBJECT_NAME":"STARLINK-1454","OBJECT_ID":"2020-035Q","EPOCH":"2025-10-20T06:19:07.714272","MEAN_MOTION":15.06376179,"ECCENTRICITY":0.0001547,"INCLINATION":53.055,"RA_OF_ASC_NODE":337.02,"ARG_OF_PERICENTER":85.0761,"MEAN_ANOMALY":275.0404,"EPHEMERIS_TYPE":0,"CLASSIFICATION_TYPE":"U","NORAD_CAT_ID":45671,"ELEMENT_SET_NO":999,"REV_AT_EPOCH":29755,"BSTAR":-0.00051134593,"MEAN_MOTION_DOT":-7.885e-5,"MEAN_MOTION_DDOT":0},{"OBJECT_NAME":"STARLINK-1456","OBJECT_ID":"2020-035S","EPOCH":"2025-10-20T06:40:21.576864","MEAN_MOTION":15.06374767,"ECCENTRICITY":0.00014327,"INCLINATION":53.0551,"RA_OF_ASC_NODE":336.9544,"ARG_OF_PERICENTER":81.4129,"MEAN_ANOMALY":278.7022,"EPHEMERIS_TYPE":0,"CLASSIFICATION_TYPE":"U","NORAD_CAT_ID":45673,"ELEMENT_SET_NO":999,"REV_AT_EPOCH":29757,"BSTAR":-0.00069030516,"MEAN_MOTION_DOT":-0.00010541,"MEAN_MOTION_DDOT":0},{"OBJECT_NAME":"STARLINK-1457","OBJECT_ID":"2020-035T","EPOCH":"2025-10-20T06:50:58.737120","MEAN_MOTION":15.06378579,"ECCENTRICITY":0.00013737,"INCLINATION":53.0552,"RA_OF_ASC_NODE":336.9192,"ARG_OF_PERICENTER":99.3697,"MEAN_ANOMALY":260.7447,"EPHEMERIS_TYPE":0,"CLASSIFICATION_TYPE":"U","NORAD_CAT_ID":45674,"ELEMENT_SET_NO":999,"REV_AT_EPOCH":29754,"BSTAR":-0.00058389572,"MEAN_MOTION_DOT":-8.963e-5,"MEAN_MOTION_DDOT":0},{"OBJECT_NAME":"STARLINK-1458","OBJECT_ID":"2020-035U","EPOCH":"2025-10-20T06:35:02.600160","MEAN_MOTION":15.06375865,"ECCENTRICITY":0.00013256,"INCLINATION":53.0553,"RA_OF_ASC_NODE":336.9675,"ARG_OF_PERICENTER":97.6976,"MEAN_ANOMALY":262.4163,"EPHEMERIS_TYPE":0,"CLASSIFICATION_TYPE":"U","NORAD_CAT_ID":45675,"ELEMENT_SET_NO":999,"REV_AT_EPOCH":29753,"BSTAR":-0.00087017183,"MEAN_MOTION_DOT":-0.0001321,"MEAN_MOTION_DDOT":0},{"OBJECT_NAME":"STARLINK-1460","OBJECT_ID":"2020-035V","EPOCH":"2025-10-20T07:28:07.896000","MEAN_MOTION":15.06373617,"ECCENTRICITY":0.00017516,"INCLINATION":53.0546,"RA_OF_ASC_NODE":336.8022,"ARG_OF_PERICENTER":89.4558,"MEAN_ANOMALY":270.6632,"EPHEMERIS_TYPE":0,"CLASSIFICATION_TYPE":"U","NORAD_CAT_ID":45676,"ELEMENT_SET_NO":999,"REV_AT_EPOCH":29753,"BSTAR":-0.00036364193,"MEAN_MOTION_DOT":-5.69e-5,"MEAN_MOTION_DDOT":0},{"OBJECT_NAME":"STARLINK-1392","OBJECT_ID":"2020-035W","EPOCH":"2025-10-20T02:57:26.729856","MEAN_MOTION":15.0637905,"ECCENTRICITY":0.00017724,"INCLINATION":53.057,"RA_OF_ASC_NODE":337.649,"ARG_OF_PERICENTER":87.6279,"MEAN_ANOMALY":272.4913,"EPHEMERIS_TYPE":0,"CLASSIFICATION_TYPE":"U","NORAD_CAT_ID":45677,"ELEMENT_SET_NO":999,"REV_AT_EPOCH":29754,"BSTAR":-0.00022389299,"MEAN_MOTION_DOT":-3.613e-5,"MEAN_MOTION_DDOT":0},{"OBJECT_NAME":"STARLINK-1394","OBJECT_ID":"2020-035Y","EPOCH":"2025-10-20T07:40:04.491552","MEAN_MOTION":15.06382393,"ECCENTRICITY":0.00013332,"INCLINATION":53.0549,"RA_OF_ASC_NODE":326.766,"ARG_OF_PERICENTER":96.9445,"MEAN_ANOMALY":263.1696,"EPHEMERIS_TYPE":0,"CLASSIFICATION_TYPE":"U","NORAD_CAT_ID":45679,"ELEMENT_SET_NO":999,"REV_AT_EPOCH":29771,"BSTAR":-0.00038409954,"MEAN_MOTION_DOT":-5.995e-5,"MEAN_MOTION_DDOT":0},{"OBJECT_NAME":"STARLINK-1402","OBJECT_ID":"2020-035AE","EPOCH":"2025-10-20T08:00:03.000384","MEAN_MOTION":15.1764715,"ECCENTRICITY":0.00013995,"INCLINATION":53.0532,"RA_OF_ASC_NODE":320.783,"ARG_OF_PERICENTER":65.2948,"MEAN_ANOMALY":21.2009,"EPHEMERIS_TYPE":0,"CLASSIFICATION_TYPE":"U","NORAD_CAT_ID":45685,"ELEMENT_SET_NO":999,"REV_AT_EPOCH":580,"BSTAR":0.043497117,"MEAN_MOTION_DOT":0.00961885,"MEAN_MOTION_DDOT":0},{"OBJECT_NAME":"STARLINK-1404","OBJECT_ID":"2020-035AF","EPOCH":"2025-10-20T01:55:04.392480","MEAN_MOTION":15.064037,"ECCENTRICITY":0.00029561,"INCLINATION":53.0541,"RA_OF_ASC_NODE":327.8442,"ARG_OF_PERICENTER":81.9369,"MEAN_ANOMALY":278.1955,"EPHEMERIS_TYPE":0,"CLASSIFICATION_TYPE":"U","NORAD_CAT_ID":45686,"ELEMENT_SET_NO":999,"REV_AT_EPOCH":29768,"BSTAR":0.0003282059,"MEAN_MOTION_DOT":4.611e-5,"MEAN_MOTION_DDOT":0}]
